OKEAN-3                 
1 21397U 91039A   25299.90715145  .00003864  00000+0  27965-3 0  9995
2 21397  82.5144 106.3612 0015756  68.5956 291.6949 15.03648609844929
COSMOS 2151             
1 21422U 91042A   25299.91366231  .00003152  00000+0  25480-3 0  9997
2 21422  82.4991 212.6106 0013311 144.2949 215.9167 14.99431378843146
SL-14 R/B               
1 21423U 91042B   25299.84770765  .00000551  00000+0  66941-4 0  9999
2 21423  82.4943 345.6994 0016110 325.3076  34.7085 14.81677340833258
ERS-1                   
1 21574U 91050A   25299.95239937  .00000490  00000+0  17202-3 0  9995
2 21574  98.7934 309.8297 0031094 238.0831 121.7330 14.39311108796494
ARIANE 40 R/B           
1 21610U 91050F   25299.90526205  .00000493  00000+0  16059-3 0  9990
2 21610  98.2232 352.0107 0004294 113.2582 246.9061 14.42753701799701
INTERCOSMOS 25          
1 21819U 91086A   25299.73852241  .00001252  00000+0  23990-3 0  9999
2 21819  82.6089  30.9756 1489010  45.6653 325.7175 12.11535832480461
SL-8 R/B                
1 21876U 92008B   25299.94424876  .00000113  00000+0  10004-3 0  9996
2 21876  82.9306   7.2489 0035582 146.5204  26.3298 13.75945548691028
SL-8 R/B                
1 21938U 92020B   25299.99718594  .00000070  00000+0  57308-4 0  9998
2 21938  82.9288 253.0275 0028038 313.3176 113.5873 13.75519254682759
USA 81                  
1 21949U 92023A   25299.80844816  .00000293  00000+0  10129-3 0  9996
2 21949  85.0117 208.6329 0002764  91.3371 268.8139 14.32301223 75620
COSMOS 2219             
1 22219U 92076A   25299.75370294  .00000407  00000+0  23852-3 0  9997
2 22219  71.0588 298.0506 0016637  39.9722 320.2622 14.14052858699449
SL-16 R/B               
1 22220U 92076B   25299.92664571 -.00000110  00000+0 -30702-4 0  9998
2 22220  70.9974 110.1394 0014938 294.7920 217.3839 14.16828775702880
COSMOS 2221             
1 22236U 92080A   25299.78467947  .00003333  00000+0  29852-3 0  9993
2 22236  82.5062  47.2482 0013235 283.4781  76.4965 14.95476990760772
