CCSDS_OMM_VERS = 2.0
CREATION_DATE  = 
ORIGINATOR     = 

OBJECT_NAME    = OKEAN-3
OBJECT_ID      = 1991-039A
CENTER_NAME    = EARTH
REF_FRAME      = TEME
TIME_SYSTEM    = UTC
MEAN_ELEMENT_THEORY = SGP/SGP4

EPOCH          = 2025-10-26T21:46:17.885280
MEAN_MOTION    = 15.03648609
ECCENTRICITY   = .00157566
INCLINATION    = 82.5144
RA_OF_ASC_NODE = 106.3612
ARG_OF_PERICENTER = 68.5956
MEAN_ANOMALY   = 291.6949

EPHEMERIS_TYPE = 0
CLASSIFICATION_TYPE = U
NORAD_CAT_ID   = 21397
ELEMENT_SET_NO = 999
REV_AT_EPOCH   = 84492
BSTAR          = .2796504E-3
MEAN_MOTION_DOT = .3864E-4
MEAN_MOTION_DDOT = 0

CCSDS_OMM_VERS = 2.0
CREATION_DATE  = 
ORIGINATOR     = 

OBJECT_NAME    = COSMOS 2151
OBJECT_ID      = 1991-042A
CENTER_NAME    = EARTH
REF_FRAME      = TEME
TIME_SYSTEM    = UTC
MEAN_ELEMENT_THEORY = SGP/SGP4

EPOCH          = 2025-10-26T21:55:40.423584
MEAN_MOTION    = 14.99431378
ECCENTRICITY   = .00133113
INCLINATION    = 82.4991
RA_OF_ASC_NODE = 212.6106
ARG_OF_PERICENTER = 144.2949
MEAN_ANOMALY   = 215.9167

EPHEMERIS_TYPE = 0
CLASSIFICATION_TYPE = U
NORAD_CAT_ID   = 21422
ELEMENT_SET_NO = 999
REV_AT_EPOCH   = 84314
BSTAR          = .25479612E-3
MEAN_MOTION_DOT = .3152E-4
MEAN_MOTION_DDOT = 0

CCSDS_OMM_VERS = 2.0
CREATION_DATE  = 
ORIGINATOR     = 

OBJECT_NAME    = SL-14 R/B
OBJECT_ID      = 1991-042B
CENTER_NAME    = EARTH
REF_FRAME      = TEME
TIME_SYSTEM    = UTC
MEAN_ELEMENT_THEORY = SGP/SGP4

EPOCH          = 2025-10-26T20:20:41.940960
MEAN_MOTION    = 14.81677340
ECCENTRICITY   = .00161103
INCLINATION    = 82.4943
RA_OF_ASC_NODE = 345.6994
ARG_OF_PERICENTER = 325.3076
MEAN_ANOMALY   = 34.7085

EPHEMERIS_TYPE = 0
CLASSIFICATION_TYPE = U
NORAD_CAT_ID   = 21423
ELEMENT_SET_NO = 999
REV_AT_EPOCH   = 83325
BSTAR          = .66940508E-4
MEAN_MOTION_DOT = .551E-5
MEAN_MOTION_DDOT = 0

CCSDS_OMM_VERS = 2.0
CREATION_DATE  = 
ORIGINATOR     = 

OBJECT_NAME    = ERS-1
OBJECT_ID      = 1991-050A
CENTER_NAME    = EARTH
REF_FRAME      = TEME
TIME_SYSTEM    = UTC
MEAN_ELEMENT_THEORY = SGP/SGP4

EPOCH          = 2025-10-26T22:51:27.305568
MEAN_MOTION    = 14.39311108
ECCENTRICITY   = .00310943
INCLINATION    = 98.7934
RA_OF_ASC_NODE = 309.8297
ARG_OF_PERICENTER = 238.0831
MEAN_ANOMALY   = 121.7330

EPHEMERIS_TYPE = 0
CLASSIFICATION_TYPE = U
NORAD_CAT_ID   = 21574
ELEMENT_SET_NO = 999
REV_AT_EPOCH   = 79649
BSTAR          = .17201846E-3
MEAN_MOTION_DOT = .49E-5
MEAN_MOTION_DDOT = 0

CCSDS_OMM_VERS = 2.0
CREATION_DATE  = 
ORIGINATOR     = 

OBJECT_NAME    = ARIANE 40 R/B
OBJECT_ID      = 1991-050F
CENTER_NAME    = EARTH
REF_FRAME      = TEME
TIME_SYSTEM    = UTC
MEAN_ELEMENT_THEORY = SGP/SGP4

EPOCH          = 2025-10-26T21:43:34.641120
MEAN_MOTION    = 14.42753701
ECCENTRICITY   = .00042948
INCLINATION    = 98.2232
RA_OF_ASC_NODE = 352.0107
ARG_OF_PERICENTER = 113.2582
MEAN_ANOMALY   = 246.9061

EPHEMERIS_TYPE = 0
CLASSIFICATION_TYPE = U
NORAD_CAT_ID   = 21610
ELEMENT_SET_NO = 999
REV_AT_EPOCH   = 79970
BSTAR          = .16059365E-3
MEAN_MOTION_DOT = .493E-5
MEAN_MOTION_DDOT = 0

CCSDS_OMM_VERS = 2.0
CREATION_DATE  = 
ORIGINATOR     = 

OBJECT_NAME    = INTERCOSMOS 25
OBJECT_ID      = 1991-086A
CENTER_NAME    = EARTH
REF_FRAME      = TEME
TIME_SYSTEM    = UTC
MEAN_ELEMENT_THEORY = SGP/SGP4

EPOCH          = 2025-10-26T17:43:28.336224
MEAN_MOTION    = 12.11535832
ECCENTRICITY   = .14890105
INCLINATION    = 82.6089
RA_OF_ASC_NODE = 30.9756
ARG_OF_PERICENTER = 45.6653
MEAN_ANOMALY   = 325.7175

EPHEMERIS_TYPE = 0
CLASSIFICATION_TYPE = U
NORAD_CAT_ID   = 21819
ELEMENT_SET_NO = 999
REV_AT_EPOCH   = 48046
BSTAR          = .23989682E-3
MEAN_MOTION_DOT = .1252E-4
MEAN_MOTION_DDOT = 0

CCSDS_OMM_VERS = 2.0
CREATION_DATE  = 
ORIGINATOR     = 

OBJECT_NAME    = SL-8 R/B
OBJECT_ID      = 1992-008B
CENTER_NAME    = EARTH
REF_FRAME      = TEME
TIME_SYSTEM    = UTC
MEAN_ELEMENT_THEORY = SGP/SGP4

EPOCH          = 2025-10-26T22:39:43.092864
MEAN_MOTION    = 13.75945548
ECCENTRICITY   = .0035582
INCLINATION    = 82.9306
RA_OF_ASC_NODE = 7.2489
ARG_OF_PERICENTER = 146.5204
MEAN_ANOMALY   = 26.3298

EPHEMERIS_TYPE = 0
CLASSIFICATION_TYPE = U
NORAD_CAT_ID   = 21876
ELEMENT_SET_NO = 999
REV_AT_EPOCH   = 69102
BSTAR          = .10004411E-3
MEAN_MOTION_DOT = .113E-5
MEAN_MOTION_DDOT = 0

CCSDS_OMM_VERS = 2.0
CREATION_DATE  = 
ORIGINATOR     = 

OBJECT_NAME    = SL-8 R/B
OBJECT_ID      = 1992-020B
CENTER_NAME    = EARTH
REF_FRAME      = TEME
TIME_SYSTEM    = UTC
MEAN_ELEMENT_THEORY = SGP/SGP4

EPOCH          = 2025-10-26T23:55:56.865216
MEAN_MOTION    = 13.75519254
ECCENTRICITY   = .00280386
INCLINATION    = 82.9288
RA_OF_ASC_NODE = 253.0275
ARG_OF_PERICENTER = 313.3176
MEAN_ANOMALY   = 113.5873

EPHEMERIS_TYPE = 0
CLASSIFICATION_TYPE = U
NORAD_CAT_ID   = 21938
ELEMENT_SET_NO = 999
REV_AT_EPOCH   = 68275
BSTAR          = .5730813E-4
MEAN_MOTION_DOT = .7E-6
MEAN_MOTION_DDOT = 0

CCSDS_OMM_VERS = 2.0
CREATION_DATE  = 
ORIGINATOR     = 

OBJECT_NAME    = USA 81
OBJECT_ID      = 1992-023A
CENTER_NAME    = EARTH
REF_FRAME      = TEME
TIME_SYSTEM    = UTC
MEAN_ELEMENT_THEORY = SGP/SGP4

EPOCH          = 2025-10-26T19:24:09.921024
MEAN_MOTION    = 14.32301223
ECCENTRICITY   = .00027645
INCLINATION    = 85.0117
RA_OF_ASC_NODE = 208.6329
ARG_OF_PERICENTER = 91.3371
MEAN_ANOMALY   = 268.8139

EPHEMERIS_TYPE = 0
CLASSIFICATION_TYPE = U
NORAD_CAT_ID   = 21949
ELEMENT_SET_NO = 999
REV_AT_EPOCH   = 7562
BSTAR          = .10128761E-3
MEAN_MOTION_DOT = .293E-5
MEAN_MOTION_DDOT = 0

CCSDS_OMM_VERS = 2.0
CREATION_DATE  = 
ORIGINATOR     = 

OBJECT_NAME    = COSMOS 2219
OBJECT_ID      = 1992-076A
CENTER_NAME    = EARTH
REF_FRAME      = TEME
TIME_SYSTEM    = UTC
MEAN_ELEMENT_THEORY = SGP/SGP4

EPOCH          = 2025-10-26T18:05:19.934016
MEAN_MOTION    = 14.14052858
ECCENTRICITY   = .00166379
INCLINATION    = 71.0588
RA_OF_ASC_NODE = 298.0506
ARG_OF_PERICENTER = 39.9722
MEAN_ANOMALY   = 320.2622

EPHEMERIS_TYPE = 0
CLASSIFICATION_TYPE = U
NORAD_CAT_ID   = 22219
ELEMENT_SET_NO = 999
REV_AT_EPOCH   = 69944
BSTAR          = .23851565E-3
MEAN_MOTION_DOT = .407E-5
MEAN_MOTION_DDOT = 0

CCSDS_OMM_VERS = 2.0
CREATION_DATE  = 
ORIGINATOR     = 

OBJECT_NAME    = SL-16 R/B
OBJECT_ID      = 1992-076B
CENTER_NAME    = EARTH
REF_FRAME      = TEME
TIME_SYSTEM    = UTC
MEAN_ELEMENT_THEORY = SGP/SGP4

EPOCH          = 2025-10-26T22:14:22.189344
MEAN_MOTION    = 14.16828775
ECCENTRICITY   = .00149387
INCLINATION    = 70.9974
RA_OF_ASC_NODE = 110.1394
ARG_OF_PERICENTER = 294.7920
MEAN_ANOMALY   = 217.3839

EPHEMERIS_TYPE = 0
CLASSIFICATION_TYPE = U
NORAD_CAT_ID   = 22220
ELEMENT_SET_NO = 999
REV_AT_EPOCH   = 70288
BSTAR          = -.3070166E-4
MEAN_MOTION_DOT = -.11E-5
MEAN_MOTION_DDOT = 0

CCSDS_OMM_VERS = 2.0
CREATION_DATE  = 
ORIGINATOR     = 

OBJECT_NAME    = COSMOS 2221
OBJECT_ID      = 1992-080A
CENTER_NAME    = EARTH
REF_FRAME      = TEME
TIME_SYSTEM    = UTC
MEAN_ELEMENT_THEORY = SGP/SGP4

EPOCH          = 2025-10-26T18:49:56.306208
MEAN_MOTION    = 14.95476990
ECCENTRICITY   = .00132352
INCLINATION    = 82.5062
RA_OF_ASC_NODE = 47.2482
ARG_OF_PERICENTER = 283.4781
MEAN_ANOMALY   = 76.4965

EPHEMERIS_TYPE = 0
CLASSIFICATION_TYPE = U
NORAD_CAT_ID   = 22236
ELEMENT_SET_NO = 999
REV_AT_EPOCH   = 76077
BSTAR          = .2985224E-3
MEAN_MOTION_DOT = .3333E-4
MEAN_MOTION_DDOT = 0

